NORAD_CAT_ID,OBJECT_NAME,OBJECT_TYPE,EPOCH,MEAN_MOTION,ECCENTRICITY,INCLINATION,RA_OF_ASC_NODE,ARG_OF_PERICENTER,MEAN_ANOMALY,BSTAR,MEAN_MOTION_DOT,MEAN_MOTION_DDOT,TLE_LINE0,TLE_LINE1,TLE_LINE2,SEMIMAJOR_AXIS,PERIOD,APOGEE,PERIGEE,DECAYED
51132.0,STARLINK-3393,PAYLOAD,2024-07-31 06:03:52,15.08846411,0.0001904,53.2171,51.7391,90.4145,269.7066,0.00013682,1.89e-05,0.0,0 STARLINK-3393,1 51132U 22005AE  24213.25269238  .00001890  00000-0  13682-3 0  9991,2 51132  53.2171  51.7391 0001904  90.4145 269.7066 15.08846411140195,6917.861,95.437,541.043,538.409,0.0
51132.0,STARLINK-3393,PAYLOAD,2024-07-31 20:22:21,15.08833772,0.00014,53.218,49.0669,96.6049,263.5103,-4.8877e-05,-1.066e-05,0.0,0 STARLINK-3393,1 51132U 22005AE  24213.84885650 -.00001066  00000-0 -48877-4 0  9990,2 51132  53.2180  49.0669 0001400  96.6049 263.5103 15.08833772140285,6917.899,95.438,540.733,538.796,0.0
51132.0,STARLINK-3393,PAYLOAD,2024-08-01 20:13:08,15.08852344,0.0001293,53.2168,44.6052,89.3157,270.7983,0.00074154,0.00011537,0.0,0 STARLINK-3393,1 51132U 22005AE  24214.84245558  .00011537  00000-0  74154-3 0  9996,2 51132  53.2168  44.6052 0001293  89.3157 270.7983 15.08852344141550,6917.843,95.437,540.602,538.813,0.0
51132.0,STARLINK-3393,PAYLOAD,2024-08-02 12:06:59,15.0885316,0.0003521,53.2165,41.6318,81.2756,278.8635,0.00040083,6.099e-05,0.0,0 STARLINK-3393,1 51132U 22005AE  24215.50485710  .00006099  00000-0  40083-3 0  9997,2 51132  53.2165  41.6318 0003521  81.2756 278.8635 15.08853160141652,6917.84,95.437,542.141,537.269,0.0
51132.0,STARLINK-3393,PAYLOAD,2024-08-02 20:03:55,15.08829511,0.0001547,53.2161,40.1441,85.9229,274.194,-9.0808e-05,-1.732e-05,0.0,0 STARLINK-3393,1 51132U 22005AE  24215.83605814 -.00001732  00000-0 -90808-4 0  9994,2 51132  53.2161  40.1441 0001547  85.9229 274.1940 15.08829511141708,6917.912,95.438,540.848,538.707,0.0
51132.0,STARLINK-3393,PAYLOAD,2024-08-02 21:39:18,15.08832776,0.000153,53.216,39.8465,86.0527,274.064,0.00019185,2.766e-05,0.0,0 STARLINK-3393,1 51132U 22005AE  24215.90229854  .00002766  00000-0  19185-3 0  9992,2 51132  53.2160  39.8465 0001530  86.0527 274.0640 15.08832776140592,6917.902,95.438,540.826,538.709,0.0
51132.0,STARLINK-3393,PAYLOAD,2024-08-03 11:57:47,15.08843222,0.0001636,53.2164,37.1705,86.2227,273.8952,0.0012751,0.00020065,0.0,0 STARLINK-3393,1 51132U 22005AE  24216.49846485  .00020065  00000-0  12751-2 0  9995,2 51132  53.2164  37.1705 0001636  86.2227 273.8952 15.08843222140681,6917.871,95.437,540.867,538.604,0.0
51132.0,STARLINK-3393,PAYLOAD,2024-08-03 18:19:19,15.08853338,0.0001608,53.2159,35.9807,86.2518,273.8658,0.001378,0.00021719,0.0,0 STARLINK-3393,1 51132U 22005AE  24216.76342342  .00021719  00000-0  13780-2 0  9998,2 51132  53.2159  35.9807 0001608  86.2518 273.8658 15.08853338141847,6917.84,95.437,540.817,538.592,0.0
51132.0,STARLINK-3393,PAYLOAD,2024-08-04 14:59:20,15.08851497,0.0002562,53.2157,32.1092,114.8527,245.2732,0.00038268,5.809e-05,0.0,0 STARLINK-3393,1 51132U 22005AE  24217.62453762  .00005809  00000-0  38268-3 0  9994,2 51132  53.2157  32.1092 0002562 114.8527 245.2732 15.08851497140858,6917.845,95.437,541.483,537.938,0.0
51132.0,STARLINK-3393,PAYLOAD,2024-08-04 18:10:06,15.08852884,0.0001556,53.2162,31.5192,100.2402,259.8765,0.00058857,9.095e-05,0.0,0 STARLINK-3393,1 51132U 22005AE  24217.75701707  .00009095  00000-0  58857-3 0  9990,2 51132  53.2162  31.5192 0001556 100.2402 259.8765 15.08852884141995,6917.841,95.437,540.782,538.63,0.0
51132.0,STARLINK-3393,PAYLOAD,2024-08-05 18:00:53,15.08839716,0.0001269,53.2168,27.0587,80.8419,279.2717,0.00035629,5.387e-05,0.0,0 STARLINK-3393,1 51132U 22005AE  24218.75062207  .00005387  00000-0  35629-3 0  9998,2 51132  53.2168  27.0587 0001269  80.8419 279.2717 15.08839716142141,6917.881,95.438,540.624,538.868,0.0
51132.0,STARLINK-3393,PAYLOAD,2024-08-06 14:40:54,15.0883333,0.0001144,53.2167,23.1892,79.5228,280.5893,5.329e-05,5.6e-06,0.0,0 STARLINK-3393,1 51132U 22005AE  24219.61174585  .00000560  00000-0  53290-4 0  9990,2 51132  53.2167  23.1892 0001144  79.5228 280.5893 15.08833330141157,6917.901,95.438,540.557,538.974,0.0
51132.0,STARLINK-3393,PAYLOAD,2024-08-06 17:51:41,15.0883727,0.0001137,53.217,22.5949,85.2918,274.8204,0.00015261,2.142e-05,0.0,0 STARLINK-3393,1 51132U 22005AE  24219.74422688  .00002142  00000-0  15261-3 0  9997,2 51132  53.2170  22.5949 0001137  85.2918 274.8204 15.08837270142294,6917.889,95.438,540.54,538.967,0.0
51132.0,STARLINK-3393,PAYLOAD,2024-08-07 11:20:55,15.08841773,0.0001077,53.2177,19.3278,89.7372,270.3743,0.00022225,3.251e-05,0.0,0 STARLINK-3393,1 51132U 22005AE  24220.47286512  .00003251  00000-0  22225-3 0  9993,2 51132  53.2177  19.3278 0001077  89.7372 270.3743 15.08841773141286,6917.875,95.437,540.485,538.995,0.0
51132.0,STARLINK-3393,PAYLOAD,2024-08-07 17:42:27,15.08846243,0.0001077,53.2171,18.1345,74.2613,285.8498,0.00026815,3.983e-05,0.0,0 STARLINK-3393,1 51132U 22005AE  24220.73782372  .00003983  00000-0  26815-3 0  9998,2 51132  53.2171  18.1345 0001077  74.2613 285.8498 15.08846243141329,6917.861,95.437,540.471,538.981,0.0
51132.0,STARLINK-3393,PAYLOAD,2024-08-08 14:22:28,15.08843833,0.0001151,53.218,14.2735,92.8263,267.286,0.00018265,2.621e-05,0.0,0 STARLINK-3393,1 51132U 22005AE  24221.59894463  .00002621  00000-0  18265-3 0  9996,2 51132  53.2180  14.2735 0001151  92.8263 267.2860 15.08843833141452,6917.869,95.437,540.53,538.937,0.0
51132.0,STARLINK-3393,PAYLOAD,2024-08-08 20:44:01,15.08842616,0.0001148,53.2173,13.0796,78.251,281.8611,0.0002589,3.835e-05,0.0,0 STARLINK-3393,1 51132U 22005AE  24221.86390521  .00003835  00000-0  25890-3 0  9992,2 51132  53.2173  13.0796 0001148  78.2510 281.8611 15.08842616142610,6917.872,95.437,540.532,538.943,0.0
51132.0,STARLINK-3393,PAYLOAD,2024-08-09 14:13:16,15.08828069,0.0001218,53.2171,9.8116,88.4345,271.6787,-0.00019427,-3.377e-05,0.0,0 STARLINK-3393,1 51132U 22005AE  24222.59255040 -.00003377  00000-0 -19427-3 0  9991,2 51132  53.2171   9.8116 0001218  88.4345 271.6787 15.08828069141609,6917.917,95.438,540.624,538.939,0.0
51132.0,STARLINK-3393,PAYLOAD,2024-08-09 18:59:25,15.0884514,0.0001096,53.2179,8.9181,96.7075,263.4042,0.00012177,1.651e-05,0.0,0 STARLINK-3393,1 51132U 22005AE  24222.79126522  .00001651  00000-0  12177-3 0  9991,2 51132  53.2179   8.9181 0001096  96.7075 263.4042 15.08845140141630,6917.865,95.437,540.488,538.971,0.0
51132.0,STARLINK-3393,PAYLOAD,2024-08-10 14:04:03,15.08834841,0.0001695,53.2188,5.3508,69.6478,290.4697,9.7569e-05,1.265e-05,0.0,0 STARLINK-3393,1 51132U 22005AE  24223.58615639  .00001265  00000-0  97569-4 0  9991,2 51132  53.2188   5.3508 0001695  69.6478 290.4697 15.08834841141750,6917.896,95.438,540.934,538.589,0.0
51132.0,STARLINK-3393,PAYLOAD,2024-08-10 17:14:49,15.08857848,0.0001178,53.2178,4.7553,90.6095,269.5032,0.00040792,6.213e-05,0.0,0 STARLINK-3393,1 51132U 22005AE  24223.71862454  .00006213  00000-0  40792-3 0  9998,2 51132  53.2178   4.7553 0001178  90.6095 269.5032 15.08857848141771,6917.826,95.436,540.506,538.876,0.0
51132.0,STARLINK-3393,PAYLOAD,2024-08-11 02:47:07,15.08870907,0.000132,53.2175,2.9717,85.0334,275.0809,0.00075376,0.00011739,0.0,0 STARLINK-3393,1 51132U 22005AE  24224.11605876  .00011739  00000-0  75376-3 0  9991,2 51132  53.2175   2.9717 0001320  85.0334 275.0809 15.08870907142959,6917.786,95.436,540.564,538.738,0.0
51132.0,STARLINK-3393,PAYLOAD,2024-08-11 09:08:41,15.08829519,0.0001932,53.2176,1.7834,90.2919,269.8294,-0.00010691,-1.989e-05,0.0,0 STARLINK-3393,1 51132U 22005AE  24224.38103477 -.00001989  00000-0 -10691-3 0  9997,2 51132  53.2176   1.7834 0001932  90.2919 269.8294 15.08829519142999,6917.912,95.438,541.114,538.441,0.0
51132.0,STARLINK-3393,PAYLOAD,2024-08-11 18:40:59,15.08859886,0.00028,53.2142,0.0063,74.3052,285.8248,0.00043699,6.677e-05,0.0,0 STARLINK-3393,1 51132U 22005AE  24224.77846629  .00006677  00000-0  43699-3 0  9994,2 51132  53.2142   0.0063 0002800  74.3052 285.8248 15.08859886143059,6917.82,95.436,541.622,537.748,0.0
51132.0,STARLINK-3393,PAYLOAD,2024-08-12 08:59:25,15.08889117,0.0002339,53.2172,357.3214,91.5612,268.5648,0.00086912,0.0001359,0.0,0 STARLINK-3393,1 51132U 22005AE  24225.37460449  .00013590  00000-0  86912-3 0  9990,2 51132  53.2172 357.3214 0002339  91.5612 268.5648 15.08889117143140,6917.73,95.434,541.213,537.977,0.0
51132.0,STARLINK-3393,PAYLOAD,2024-08-12 15:20:58,15.08869545,0.0001103,53.2171,356.131,105.5896,254.5217,0.00024548,3.624e-05,0.0,0 STARLINK-3393,1 51132U 22005AE  24225.63956020  .00003624  00000-0  24548-3 0  9998,2 51132  53.2171 356.1310 0001103 105.5896 254.5217 15.08869545142061,6917.79,95.436,540.418,538.892,0.0
51132.0,STARLINK-3393,PAYLOAD,2024-08-12 18:31:44,15.08870058,2.4e-05,53.2175,355.5365,140.743,219.3579,0.00019545,2.827e-05,0.0,0 STARLINK-3393,1 51132U 22005AE  24225.77203741  .00002827  00000-0  19545-3 0  9993,2 51132  53.2175 355.5365 0000240 140.7430 219.3579 15.08870058143202,6917.789,95.436,539.82,539.487,0.0
51132.0,STARLINK-3393,PAYLOAD,2024-08-12 20:07:07,15.08857497,0.0001454,53.2177,355.2404,104.5616,255.5538,-0.00021693,-3.74e-05,0.0,0 STARLINK-3393,1 51132U 22005AE  24225.83828385 -.00003740  00000-0 -21693-3 0  9991,2 51132  53.2177 355.2404 0001454 104.5616 255.5538 15.08857497142092,6917.827,95.436,540.698,538.686,0.0
51132.0,STARLINK-3393,PAYLOAD,2024-08-13 08:50:15,15.08783058,0.0002527,53.2117,352.8616,107.7986,252.3282,-0.0011869,-0.000191,0.0,0 STARLINK-3393,1 51132U 22005AE  24226.36823362 -.00019100  00000-0 -11869-2 0  9990,2 51132  53.2117 352.8616 0002527 107.7986 252.3282 15.08783058143296,6918.054,95.441,541.668,538.171,0.0
51132.0,STARLINK-3393,PAYLOAD,2024-08-13 18:22:35,15.08787265,0.0002733,53.2128,351.0769,122.2178,237.9079,0.001715,0.00027073,0.0,0 STARLINK-3393,1 51132U 22005AE  24226.76569299  .00027073  00000-0  17150-2 0  9995,2 51132  53.2128 351.0769 0002733 122.2178 237.9079 15.08787265143356,6918.042,95.441,541.797,538.016,0.0
